start=new Date('2023-05-02T00:00:00.000Z').valueOf();
sats=[{"TLE_LINE1":"1 45188U 20012L   23121.90666025  .00004835  00000-0  34324-3 0  9993","PERIOD":"95.592","RA_OF_ASC_NODE":"7.8527","EPHEMERIS_TYPE":"0","INCLINATION":"53.0556","SEMIMAJOR_AXIS":"6925.344","FILE":"3898518","MEAN_MOTION_DOT":"0.00004835","OBJECT_ID":"2020-012L","MEAN_ANOMALY":"247.6311","OBJECT_TYPE":"PAYLOAD","NORAD_CAT_ID":"45188","PERIAPSIS":"546.394","EPOCH":"2023-05-01T21:45:35.445600","APOAPSIS":"548.025","CLASSIFICATION_TYPE":"U","CENTER_NAME":"EARTH","GP_ID":"231049783","ECCENTRICITY":"0.00011780","REF_FRAME":"TEME","MEAN_MOTION":"15.06401332","MEAN_MOTION_DDOT":"0.0000000000000","COUNTRY_CODE":"US","REV_AT_EPOCH":"17817","DECAY_DATE":null,"RCS_SIZE":"LARGE","ARG_OF_PERICENTER":"112.4803","BSTAR":"0.00034324000000","TLE_LINE2":"2 45188  53.0556   7.8527 0001178 112.4803 247.6311 15.06401332178170","ELEMENT_SET_NO":"999","TIME_SYSTEM":"UTC","LAUNCH_DATE":"2020-02-17","SITE":"AFETR","MEAN_ELEMENT_THEORY":"SGP4","OBJECT_NAME":"STARLINK-1228"},{"MEAN_MOTION":"15.06421625","REF_FRAME":"TEME","MEAN_MOTION_DDOT":"0.0000000000000","COUNTRY_CODE":"US","REV_AT_EPOCH":"17478","DECAY_DATE":null,"ARG_OF_PERICENTER":"67.9841","RCS_SIZE":"LARGE","BSTAR":"0.00106170000000","TLE_LINE2":"2 45189  53.0551  50.9417 0001448  67.9841 292.1301 15.06421625174783","ELEMENT_SET_NO":"999","TIME_SYSTEM":"UTC","SITE":"AFETR","LAUNCH_DATE":"2020-02-17","OBJECT_NAME":"STARLINK-1230","MEAN_ELEMENT_THEORY":"SGP4","TLE_LINE1":"1 45189U 20012M   23121.21738719  .00015577  00000-0  10617-2 0  9991","PERIOD":"95.591","RA_OF_ASC_NODE":"50.9417","EPHEMERIS_TYPE":"0","INCLINATION":"53.0551","FILE":"3898258","SEMIMAJOR_AXIS":"6925.282","MEAN_MOTION_DOT":"0.00015577","OBJECT_ID":"2020-012M","PERIAPSIS":"546.145","OBJECT_TYPE":"PAYLOAD","NORAD_CAT_ID":"45189","MEAN_ANOMALY":"292.1301","EPOCH":"2023-05-01T05:13:02.253216","APOAPSIS":"548.150","CLASSIFICATION_TYPE":"U","CENTER_NAME":"EARTH","ECCENTRICITY":"0.00014480","GP_ID":"231016473"},{"TIME_SYSTEM":"UTC","LAUNCH_DATE":"2020-02-17","SITE":"AFETR","TLE_LINE2":"2 45190  53.0550   7.8812 0001398 112.9103 247.2033 15.06398503178123","ELEMENT_SET_NO":"999","OBJECT_NAME":"STARLINK-1234","MEAN_ELEMENT_THEORY":"SGP4","MEAN_MOTION_DDOT":"0.0000000000000","COUNTRY_CODE":"US","MEAN_MOTION":"15.06398503","REF_FRAME":"TEME","BSTAR":"0.00074985000000","DECAY_DATE":null,"RCS_SIZE":"LARGE","ARG_OF_PERICENTER":"112.9103","REV_AT_EPOCH":"17812","EPOCH":"2023-05-01T21:34:58.709568","APOAPSIS":"548.186","PERIAPSIS":"546.250","OBJECT_TYPE":"PAYLOAD","NORAD_CAT_ID":"45190","MEAN_ANOMALY":"247.2033","CENTER_NAME":"EARTH","ECCENTRICITY":"0.00013980","GP_ID":"231050785","CLASSIFICATION_TYPE":"U","PERIOD":"95.592","RA_OF_ASC_NODE":"7.8812","TLE_LINE1":"1 45190U 20012N   23121.89929062  .00010905  00000-0  74985-3 0  9999","INCLINATION":"53.0550","FILE":"3898518","SEMIMAJOR_AXIS":"6925.353","OBJECT_ID":"2020-012N","MEAN_MOTION_DOT":"0.00010905","EPHEMERIS_TYPE":"0"},{"CENTER_NAME":"EARTH","ECCENTRICITY":"0.00014440","GP_ID":"231028967","CLASSIFICATION_TYPE":"U","EPOCH":"2023-05-01T22:54:34.871328","APOAPSIS":"548.193","PERIAPSIS":"546.193","OBJECT_TYPE":"PAYLOAD","MEAN_ANOMALY":"233.4462","NORAD_CAT_ID":"45191","INCLINATION":"53.0549","MEAN_MOTION_DOT":"0.00005670","FILE":"3898446","SEMIMAJOR_AXIS":"6925.328","OBJECT_ID":"2020-012P","EPHEMERIS_TYPE":"0","PERIOD":"95.592","RA_OF_ASC_NODE":"47.6350","TLE_LINE1":"1 45191U 20012P   23121.95457027  .00005670  00000-0  39919-3 0  9995","OBJECT_NAME":"STARLINK-1236","MEAN_ELEMENT_THEORY":"SGP4","TIME_SYSTEM":"UTC","SITE":"AFETR","LAUNCH_DATE":"2020-02-17","TLE_LINE2":"2 45191  53.0549  47.6350 0001444 126.6660 233.4462 15.06406710177024","ELEMENT_SET_NO":"999","RCS_SIZE":"LARGE","DECAY_DATE":null,"BSTAR":"0.00039919000000","ARG_OF_PERICENTER":"126.6660","REV_AT_EPOCH":"17702","MEAN_MOTION_DDOT":"0.0000000000000","COUNTRY_CODE":"US","MEAN_MOTION":"15.06406710","REF_FRAME":"TEME"},{"TIME_SYSTEM":"UTC","SITE":"AFETR","LAUNCH_DATE":"2020-02-17","TLE_LINE2":"2 45192  53.0537  51.6211 0001366  80.7503 279.3640 15.06403808177541","ELEMENT_SET_NO":"999","MEAN_ELEMENT_THEORY":"SGP4","OBJECT_NAME":"STARLINK-1237","MEAN_MOTION_DDOT":"0.0000000000000","COUNTRY_CODE":"US","REF_FRAME":"TEME","MEAN_MOTION":"15.06403808","DECAY_DATE":null,"ARG_OF_PERICENTER":"80.7503","RCS_SIZE":"LARGE","BSTAR":"0.00109240000000","REV_AT_EPOCH":"17754","EPOCH":"2023-05-01T01:35:25.251072","APOAPSIS":"548.148","OBJECT_TYPE":"PAYLOAD","MEAN_ANOMALY":"279.3640","NORAD_CAT_ID":"45192","PERIAPSIS":"546.256","CENTER_NAME":"EARTH","GP_ID":"231017724","ECCENTRICITY":"0.00013660","CLASSIFICATION_TYPE":"U","PERIOD":"95.592","RA_OF_ASC_NODE":"51.6211","TLE_LINE1":"1 45192U 20012Q   23121.06626448  .00016029  00000-0  10924-2 0  9997","INCLINATION":"53.0537","FILE":"3898258","SEMIMAJOR_AXIS":"6925.337","OBJECT_ID":"2020-012Q","MEAN_MOTION_DOT":"0.00016029","EPHEMERIS_TYPE":"0"},{"DECAY_DATE":null,"RCS_SIZE":"LARGE","ARG_OF_PERICENTER":"88.8804","BSTAR":"0.00108570000000","REV_AT_EPOCH":"17750","COUNTRY_CODE":"US","MEAN_MOTION_DDOT":"0.0000000000000","MEAN_MOTION":"15.06423933","REF_FRAME":"TEME","OBJECT_NAME":"STARLINK-1239","MEAN_ELEMENT_THEORY":"SGP4","SITE":"AFETR","LAUNCH_DATE":"2020-02-17","TIME_SYSTEM":"UTC","ELEMENT_SET_NO":"999","TLE_LINE2":"2 45193  53.0541  51.0769 0001448  88.8804 271.2351 15.06423933177500","MEAN_MOTION_DOT":"0.00015937","FILE":"3898258","SEMIMAJOR_AXIS":"6925.275","OBJECT_ID":"2020-012R","INCLINATION":"53.0541","EPHEMERIS_TYPE":"0","RA_OF_ASC_NODE":"51.0769","PERIOD":"95.591","TLE_LINE1":"1 45193U 20012R   23121.18789284  .00015937  00000-0  10857-2 0  9991","ECCENTRICITY":"0.00014480","GP_ID":"231016974","CENTER_NAME":"EARTH","CLASSIFICATION_TYPE":"U","APOAPSIS":"548.143","EPOCH":"2023-05-01T04:30:33.941376","PERIAPSIS":"546.137","OBJECT_TYPE":"PAYLOAD","MEAN_ANOMALY":"271.2351","NORAD_CAT_ID":"45193"},{"TLE_LINE2":"2 45194  53.0541  51.0642 0001019 122.3639 237.7448 15.06413896177450","ELEMENT_SET_NO":"999","TIME_SYSTEM":"UTC","SITE":"AFETR","LAUNCH_DATE":"2020-02-17","OBJECT_NAME":"STARLINK-1240","MEAN_ELEMENT_THEORY":"SGP4","MEAN_MOTION":"15.06413896","REF_FRAME":"TEME","MEAN_MOTION_DDOT":"0.0000000000000","COUNTRY_CODE":"US","REV_AT_EPOCH":"17745","DECAY_DATE":null,"RCS_SIZE":"LARGE","BSTAR":"0.00122950000000","ARG_OF_PERICENTER":"122.3639","PERIAPSIS":"546.465","MEAN_ANOMALY":"237.7448","OBJECT_TYPE":"PAYLOAD","NORAD_CAT_ID":"45194","EPOCH":"2023-05-01T04:35:52.976832","APOAPSIS":"547.877","CLASSIFICATION_TYPE":"U","CENTER_NAME":"EARTH","ECCENTRICITY":"0.00010190","GP_ID":"231017224","TLE_LINE1":"1 45194U 20012S   23121.19158538  .00018086  00000-0  12295-2 0  9991","PERIOD":"95.591","RA_OF_ASC_NODE":"51.0642","EPHEMERIS_TYPE":"0","INCLINATION":"53.0541","FILE":"3898258","MEAN_MOTION_DOT":"0.00018086","SEMIMAJOR_AXIS":"6925.306","OBJECT_ID":"2020-012S"},{"EPOCH":"2023-05-01T22:09:16.300512","APOAPSIS":"441.320","PERIAPSIS":"430.647","OBJECT_TYPE":"PAYLOAD","NORAD_CAT_ID":"45195","MEAN_ANOMALY":"211.2964","CENTER_NAME":"EARTH","ECCENTRICITY":"0.00078310","GP_ID":"231051027","CLASSIFICATION_TYPE":"U","PERIOD":"93.298","RA_OF_ASC_NODE":"16.2463","TLE_LINE1":"1 45195U 20012T   23121.92310533  .00128810  00000-0  27952-2 0  9991","INCLINATION":"53.0486","OBJECT_ID":"2020-012T","FILE":"3898518","SEMIMAJOR_AXIS":"6814.118","MEAN_MOTION_DOT":"0.00128810","EPHEMERIS_TYPE":"0","TIME_SYSTEM":"UTC","SITE":"AFETR","LAUNCH_DATE":"2020-02-17","TLE_LINE2":"2 45195  53.0486  16.2463 0007831 148.8507 211.2964 15.43434662178117","ELEMENT_SET_NO":"999","OBJECT_NAME":"STARLINK-1241","MEAN_ELEMENT_THEORY":"SGP4","MEAN_MOTION_DDOT":"0.0000000000000","COUNTRY_CODE":"US","MEAN_MOTION":"15.43434662","REF_FRAME":"TEME","BSTAR":"0.00279520000000","DECAY_DATE":null,"RCS_SIZE":"LARGE","ARG_OF_PERICENTER":"148.8507","REV_AT_EPOCH":"17811"},{"REF_FRAME":"TEME","MEAN_MOTION":"15.06386105","COUNTRY_CODE":"US","MEAN_MOTION_DDOT":"0.0000000000000","REV_AT_EPOCH":"17677","DECAY_DATE":null,"RCS_SIZE":"LARGE","ARG_OF_PERICENTER":"118.8551","BSTAR":"0.00108880000000","ELEMENT_SET_NO":"999","TLE_LINE2":"2 45196  53.0535  47.5672 0001252 118.8551 241.2564 15.06386105176775","LAUNCH_DATE":"2020-02-17","SITE":"AFETR","TIME_SYSTEM":"UTC","MEAN_ELEMENT_THEORY":"SGP4","OBJECT_NAME":"STARLINK-1244","TLE_LINE1":"1 45196U 20012U   23121.96930909  .00015967  00000-0  10888-2 0  9999","RA_OF_ASC_NODE":"47.5672","PERIOD":"95.593","EPHEMERIS_TYPE":"0","FILE":"3898472","SEMIMAJOR_AXIS":"6925.391","MEAN_MOTION_DOT":"0.00015967","OBJECT_ID":"2020-012U","INCLINATION":"53.0535","OBJECT_TYPE":"PAYLOAD","MEAN_ANOMALY":"241.2564","NORAD_CAT_ID":"45196","PERIAPSIS":"546.389","APOAPSIS":"548.123","EPOCH":"2023-05-01T23:15:48.305376","CLASSIFICATION_TYPE":"U","GP_ID":"231029477","ECCENTRICITY":"0.00012520","CENTER_NAME":"EARTH"},{"FILE":"3898258","MEAN_MOTION_DOT":"0.00019148","SEMIMAJOR_AXIS":"6925.289","OBJECT_ID":"2020-012V","INCLINATION":"53.0553","EPHEMERIS_TYPE":"0","RA_OF_ASC_NODE":"51.4912","PERIOD":"95.591","TLE_LINE1":"1 45197U 20012V   23121.09575141  .00019148  00000-0  13002-2 0  9993","ECCENTRICITY":"0.00013160","GP_ID":"231016474","CENTER_NAME":"EARTH","CLASSIFICATION_TYPE":"U","APOAPSIS":"548.066","EPOCH":"2023-05-01T02:17:52.921824","PERIAPSIS":"546.243","NORAD_CAT_ID":"45197","OBJECT_TYPE":"PAYLOAD","MEAN_ANOMALY":"260.6346","ARG_OF_PERICENTER":"99.4792","DECAY_DATE":null,"RCS_SIZE":"LARGE","BSTAR":"0.00130020000000","REV_AT_EPOCH":"17751","COUNTRY_CODE":"US","MEAN_MOTION_DDOT":"0.0000000000000","MEAN_MOTION":"15.06419335","REF_FRAME":"TEME","OBJECT_NAME":"STARLINK-1269","MEAN_ELEMENT_THEORY":"SGP4","SITE":"AFETR","LAUNCH_DATE":"2020-02-17","TIME_SYSTEM":"UTC","ELEMENT_SET_NO":"999","TLE_LINE2":"2 45197  53.0553  51.4912 0001316  99.4792 260.6346 15.06419335177517"}];
